{"fetched_at":"2026-04-13T17:08:01Z","count":16292,"tles":[{"name":"STARLINK-35382","line1":"1 66019U 25232Q   26102.84997897  .00046501  00000+0  15704-2 0  9992","line2":"2 66019  53.1569 305.3759 0001184  64.4661 295.6462 15.30239269 28662","category":"Starlink"},{"name":"FENGYUN 1C DEB","line1":"1 35201U 99025DPH 26102.77748632  .00000152  00000+0  10826-3 0  9998","line2":"2 35201  98.7067 113.1402 0005632 268.2314 270.3666 14.11105387887266","category":"Weather"},{"name":"HADES","line1":"1 51080U 22002DA  23361.46352837  .00061090  00000+0  13253-2 0  9994","line2":"2 51080  97.4382  74.2272 0006731 292.5054  67.5481 15.44163905108544","category":"Other"},{"name":"STARLINK-11598 [DTC]","line1":"1 63113U 25039K   26103.08130257  .00157870  00000+0  12068-2 0  9997","line2":"2 63113  42.9976  29.6052 0001097 258.6192 101.4552 15.70915733 65029","category":"Starlink"},{"name":"FENGYUN 1C DEB","line1":"1 30851U 99025AWM 23177.78410716  .00012406  00000+0  31242-2 0  9992","line2":"2 30851  98.5384 111.4515 0055222 221.6834 138.0146 14.50369282851485","category":"Weather"},{"name":"CZ-6A DEB","line1":"1 60792U 24140FT  24249.26122157  .00005440  00000+0  73339-3 0  9992","line2":"2 60792  89.0873 347.9164 0183008 315.3603  43.2998 14.68009507  3543","category":"Other"},{"name":"HULIANWANG DIGUI-110","line1":"1 66920U 25285F   26103.02885389 -.00000088  00000+0  78653-4 0  9999","line2":"2 66920  50.0127  19.5992 0000657  64.0457 296.0483 13.29333694 17394","category":"Other"},{"name":"STARLINK-11723 [DTC]","line1":"1 64075U 25107M   26103.13019088  .00154520  00000+0  11820-2 0  9999","line2":"2 64075  42.9995 250.7226 0002758 264.4573  95.5980 15.70907335 52710","category":"Starlink"},{"name":"2024-236B","line1":"1 62264U 24236B   25005.52806223  .00066330  10935-4  37799-3 0  9995","line2":"2 62264  58.5535 252.6698 0060580 202.8580 156.9811 15.76634504  4786","category":"Other"},{"name":"STARLINK-36364","line1":"1 67978U 26038T   26103.01573874  .00022524  00000+0  69805-3 0  9998","line2":"2 67978  97.2850 113.6978 0001994  90.1232 270.0239 15.33439038  8500","category":"Starlink"},{"name":"TITAN 3C TRANSTAGE R/B","line1":"1 11940U 73040B   26102.13969067 -.00000205  00000+0  00000+0 0  9997","line2":"2 11940   1.1910 235.8143 0031077  87.9528 271.9097  0.99565905 25978","category":"Other"},{"name":"STARLINK-34833","line1":"1 65218U 25176W   26103.07602177  .00014054  00000+0  48572-3 0  9997","line2":"2 65218  53.1598 353.1143 0001299  81.9824 278.1324 15.30200213 38384","category":"Starlink"},{"name":"STARLINK-33616","line1":"1 63385U 25063Y   26102.68022467  .00009014  00000+0  31606-3 0  9999","line2":"2 63385  53.1590 265.2283 0001108  89.9674 270.1454 15.30202774 59762","category":"Starlink"},{"name":"UNKNOWN","line1":"1 87672U          26101.75936347  .00001880  00000+0  75864-3 0  9993","line2":"2 87672  70.8538 107.2408 0054060  90.2771 270.4553 14.28446709641592","category":"Other"},{"name":"AMC-11","line1":"1 28252U 04017A   26103.06736041 -.00000047  00000+0  00000+0 0  9990","line2":"2 28252   0.1399  81.0340 0003314 312.7627  80.6107  1.00271605 80213","category":"Other"},{"name":"STARLINK-35742","line1":"1 66276U 25247M   26102.97975090  .00012533  00000+0  43454-3 0  9990","line2":"2 66276  53.1596  32.1683 0001467  36.3257 323.7843 15.30200887 26333","category":"Starlink"},{"name":"FENGYUN 1C DEB","line1":"1 30942U 99025BAG 26101.27421397  .00000324  00000+0  17251-3 0  9995","line2":"2 30942  98.6863 101.3374 0137744 124.2282 252.9297 14.14985374983356","category":"Weather"},{"name":"CZ-6A DEB","line1":"1 60856U 24140JK  24249.25016134  .00003840  00000+0  29120-2 0  9999","line2":"2 60856  89.1749 348.7196 0210854 140.7092 220.9597 13.83768318  3045","category":"Other"},{"name":"STARLINK-35591","line1":"1 66984U 25288AB  26102.55638329  .00012894  00000+0  47704-3 0  9998","line2":"2 66984  43.0016 192.4680 0001174 279.7376  80.3343 15.27596026 20469","category":"Starlink"},{"name":"STARLINK-34212","line1":"1 64139U 25111S   26102.87513391  .00016412  00000+0  60434-3 0  9994","line2":"2 64139  42.9980 244.6293 0000843 268.0928  91.9827 15.27594599 50699","category":"Starlink"},{"name":"HULIANWANG DIGUI-07","line1":"1 62329U 24240G   26103.05693587  .00000062  00000+0  10973-3 0  9999","line2":"2 62329  86.5005   4.9449 0002002  72.5275 287.6078 13.24412644 64021","category":"Other"},{"name":"STARLINK-36925","line1":"1 68042U 26041C   26103.16668980 -.01901358  00000+0 -28447-1 0  9993","line2":"2 68042  53.1594 250.8432 0000841  86.0167 193.5218 15.57778946  6019","category":"Starlink"},{"name":"STARLINK-35006","line1":"1 65284U 25184M   26102.86584418  .00011834  00000+0  82257-3 0  9993","line2":"2 65284  97.6024 156.3547 0001083 122.3640 237.7691 15.05669813 36442","category":"Starlink"},{"name":"STARLINK-33768","line1":"1 63454U 25069X   26102.96752794  .00013075  00000+0  45274-3 0  9994","line2":"2 63454  53.1613 343.1815 0002373  71.0114 289.1144 15.30205382 58659","category":"Starlink"},{"name":"UNKNOWN","line1":"1 89349U          26102.48361118  .00000299  00000+0  10214-2 0  9995","line2":"2 89349  90.2528  10.0826 0029688 313.5858  46.2798 12.96302927494390","category":"Other"},{"name":"STARLINK-35218","line1":"1 66340U 25253X   26103.09949866  .00010150  00000+0  37788-3 0  9991","line2":"2 66340  43.0032  18.4663 0001430 269.8797  90.1890 15.27576869 25502","category":"Starlink"},{"name":"STARLINK-32345","line1":"1 60920U 24154T   26102.99800669  .00000358  00000+0  24219-4 0  9998","line2":"2 60920  53.1608 124.7722 0001252  76.3671 283.7470 15.30195535 91599","category":"Starlink"},{"name":"STARLINK-35877","line1":"1 67049U 25294V   26103.00074885  .00015410  00000+0  56823-3 0  9999","line2":"2 67049  42.9992 204.5620 0001057 275.5961  84.4770 15.27585859 20041","category":"Starlink"},{"name":"STARLINK-34251","line1":"1 64205U 25117C   26102.79133930  .00005936  00000+0  21237-3 0  9999","line2":"2 64205  53.1582 241.4288 0001008  78.4398 281.6716 15.30200114 49742","category":"Starlink"},{"name":"STARLINK-11439 [DTC]","line1":"1 62419U 24249L   26037.27802992  .01431543  10014-2  39536-2 0  9997","line2":"2 62419  42.9993 355.8028 0001588 252.7588 107.3114 15.93238747 64556","category":"Starlink"},{"name":"STARLINK-37024","line1":"1 68106U 26044F   26103.15851218  .00016043  00000+0  49816-3 0  9994","line2":"2 68106  97.2829  64.3473 0001567  96.6120 263.5301 15.33446952  6862","category":"Starlink"},{"name":"STARLINK-34859","line1":"1 65348U 25189AB  26103.10522818  .00014050  00000+0  48558-3 0  9992","line2":"2 65348  53.1612  47.0479 0001839  87.5693 272.5519 15.30200539 36374","category":"Starlink"},{"name":"STARLINK-33807","line1":"1 63518U 25071AB  26103.07703245  .00016649  00000+0  57339-3 0  9993","line2":"2 63518  53.1594 342.3702 0001241  75.3819 284.7320 15.30177017 58005","category":"Starlink"},{"name":"STARLINK-35691","line1":"1 66404U 25257AA  26102.58685557  .00008605  00000+0  30231-3 0  9991","line2":"2 66404  53.1593  59.5429 0001410  88.6215 271.4948 15.30202338 24927","category":"Starlink"},{"name":"CZ-6A DEB","line1":"1 60984U 24140MK  24249.25516184  .00002501  00000+0  75474-3 0  9998","line2":"2 60984  88.9534 347.4403 0062340 285.8489  73.5846 14.41108636  2021","category":"Other"},{"name":"STARLINK-35789","line1":"1 67113U 25299M   26103.01390860  .00008144  00000+0  30510-3 0  9992","line2":"2 67113  43.0025 335.3270 0001355 275.3996  84.6701 15.27584484 18364","category":"Starlink"},{"name":"STARLINK-34298","line1":"1 64269U 25120P   26102.87998008  .00006979  00000+0  24755-3 0  9993","line2":"2 64269  53.1576 317.6831 0001074  86.4194 273.6929 15.30198583 49058","category":"Starlink"},{"name":"THURAYA-4","line1":"1 62483U 25001A   26102.99697587  .00000142  00000+0  00000+0 0  9997","line2":"2 62483   0.0402  55.7194 0000042  53.8099 134.9249  1.00271368  3522","category":"Other"},{"name":"STARLINK-37003","line1":"1 68170U 26050D   26103.16668980 -.01934694  00000+0 -26190-1 0  9997","line2":"2 68170  53.1598 109.3880 0001254  93.0536 232.1943 15.60444708  5987","category":"Starlink"},{"name":"STARLINK-34992","line1":"1 65412U 25192J   26102.62803100  .00044339  00000+0  15022-2 0  9992","line2":"2 65412  53.1581  74.4782 0003553  83.6317 276.5088 15.30153622 34561","category":"Starlink"},{"name":"KORSAT-3","line1":"1 63630U 25081A   26103.14348807  .00002097  00000+0  19103-3 0  9995","line2":"2 63630  45.4120 312.9746 0005680 227.3492 132.6908 14.98594956 53429","category":"Other"},{"name":"STARLINK-35569","line1":"1 66471U 25262R   26103.05695109  .00013076  00000+0  48343-3 0  9999","line2":"2 66471  43.0006 101.9709 0000974 233.2055 126.8708 15.27609359 24168","category":"Starlink"},{"name":"2024-024K","line1":"1 58926U 24024K   24064.13933706  .01066497  22891-5  11415-2 0  9994","line2":"2 58926  97.4070 143.4467 0178435 226.4321 132.2019 15.85690903 41410","category":"Other"},{"name":"STARLINK-32549","line1":"1 62118U 24222E   26102.95505834  .00011239  00000+0  41719-3 0  9990","line2":"2 62118  43.0018 302.3134 0001808 274.7400  85.3245 15.27588757 78055","category":"Starlink"},{"name":"STARLINK-36655","line1":"1 67834U 26033P   26102.92335168  .00008049  00000+0  30169-3 0  9992","line2":"2 67834  43.0009  73.3638 0001043 261.6124  98.4609 15.27578703  9916","category":"Starlink"},{"name":"STARLINK-34806","line1":"1 65065U 25165K   26102.69733589  .00004247  00000+0  29845-3 0  9999","line2":"2 65065  97.6037 180.6914 0001506  93.2016 266.9383 15.05638525 39906","category":"Starlink"},{"name":"STARLINK-11155 [DTC]","line1":"1 60046U 24112J   26102.69516674  .00000282  00000+0  71879-5 0  9999","line2":"2 60046  53.1574  98.5099 0001142  87.5194 272.5955 15.69707104106322","category":"Starlink"},{"name":"UNKNOWN","line1":"1 82560U          26101.35529948  .00001047  00000+0  87426-3 0  9997","line2":"2 82560  99.9998  57.8520 0011669 356.9269 157.7703 13.91006283628498","category":"Other"}]}